IRIDIUM 126             
1 42809U 17039G   25066.81586831  .00000334  00000+0  11223-3 0  9993
2 42809  86.4040 188.5264 0002317  95.8987 264.2473 14.34219663403105
IRIDIUM 124             
1 42810U 17039H   25066.66383549 -.00000274  00000+0 -87633-4 0  9993
2 42810  86.4491 125.4336 0002044  88.6847 271.4588 14.43276580407820
IRIDIUM 128             
1 42811U 17039J   25066.80660534  .00000391  00000+0  13257-3 0  9990
2 42811  86.3977 219.9999 0001942  86.1290 274.0127 14.34217408403136
IRIDIUM 121             
1 42812U 17039K   25066.83489518  .00000043  00000+0  83612-5 0  9993
2 42812  86.4042 188.5427 0002012  97.0002 263.1423 14.34217881402984
IRIDIUM 133             
1 42955U 17061A   25066.83831488  .00000093  00000+0  26134-4 0  9993
2 42955  86.3981 220.0929 0002132  89.8225 270.3215 14.34215980387935
IRIDIUM 100             
1 42956U 17061B   25066.83197441  .00000450  00000+0  15348-3 0  9999
2 42956  86.3980 220.0253 0002060  89.4475 270.6957 14.34217874387938
IRIDIUM 122             
1 42957U 17061C   25066.93979601  .00000117  00000+0  34780-4 0  9999
2 42957  86.3980 219.9791 0002311  90.4905 269.6556 14.34215968387959
IRIDIUM 129             
1 42958U 17061D   25066.82563367  .00000500  00000+0  17161-3 0  9995
2 42958  86.3980 220.0888 0002153 103.3631 256.7805 14.34219020387951
